[{"OBJECT_NAME":"HAWK-C","OBJECT_ID":"2018-099AT","EPOCH":"2026-03-09T16:08:34.251360","MEAN_MOTION":15.26407167,"ECCENTRICITY":0.00403625,"INCLINATION":97.4027,"RA_OF_ASC_NODE":122.6817,"ARG_OF_PERICENTER":277.4052,"MEAN_ANOMALY":82.2601,"EPHEMERIS_TYPE":0,"CLASSIFICATION_TYPE":"U","NORAD_CAT_ID":43799,"ELEMENT_SET_NO":999,"REV_AT_EPOCH":39872,"BSTAR":0.00035662773,"MEAN_MOTION_DOT":9.431e-5,"MEAN_MOTION_DDOT":0},{"OBJECT_NAME":"STARLINK-32870","OBJECT_ID":"2025-032P","EPOCH":"2026-03-09T03:07:54.041376","MEAN_MOTION":15.27553727,"ECCENTRICITY":8.026e-5,"INCLINATION":42.9983,"RA_OF_ASC_NODE":339.2818,"ARG_OF_PERICENTER":299.9578,"MEAN_ANOMALY":60.1194,"EPHEMERIS_TYPE":0,"CLASSIFICATION_TYPE":"U","NORAD_CAT_ID":63018,"ELEMENT_SET_NO":999,"REV_AT_EPOCH":6053,"BSTAR":0.00085278621,"MEAN_MOTION_DOT":0.0002326,"MEAN_MOTION_DDOT":0}]
